{
    "links": {
        "self": "http://www.neowsapp.com/rest/v1/neo/54017249?api_key=iIulBulltgU6a56xZRHN4H3l9WmuAYTsLGpBGhQ2"
    },
    "id": "54017249",
    "neo_reference_id": "54017249",
    "name": "(2020 KA5)",
    "designation": "2020 KA5",
    "nasa_jpl_url": "http://ssd.jpl.nasa.gov/sbdb.cgi?sstr=54017249",
    "absolute_magnitude_h": 23.68,
    "estimated_diameter": {
        "kilometers": {
            "estimated_diameter_min": 0.0488151892,
            "estimated_diameter_max": 0.1091540813
        },
        "meters": {
            "estimated_diameter_min": 48.8151891662,
            "estimated_diameter_max": 109.1540813101
        },
        "miles": {
            "estimated_diameter_min": 0.0303323429,
            "estimated_diameter_max": 0.0678251807
        },
        "feet": {
            "estimated_diameter_min": 160.154825224,
            "estimated_diameter_max": 358.1170761255
        }
    },
    "is_potentially_hazardous_asteroid": false,
    "close_approach_data": [
        {
            "close_approach_date": "2020-06-22",
            "close_approach_date_full": "2020-Jun-22 22:57",
            "epoch_date_close_approach": 1592866620000,
            "relative_velocity": {
                "kilometers_per_second": "7.2155103365",
                "kilometers_per_hour": "25975.8372114139",
                "miles_per_hour": "16140.3750717255"
            },
            "miss_distance": {
                "astronomical": "0.1414782086",
                "lunar": "55.0350231454",
                "kilometers": "21164838.657975682",
                "miles": "13151220.9118491316"
            },
            "orbiting_body": "Earth"
        }
    ],
    "orbital_data": {
        "orbit_id": "6",
        "orbit_determination_date": "2020-08-22 06:34:21",
        "first_observation_date": "2020-05-20",
        "last_observation_date": "2020-06-15",
        "data_arc_in_days": 26,
        "observations_used": 45,
        "orbit_uncertainty": "7",
        "minimum_orbit_intersection": ".14099",
        "jupiter_tisserand_invariant": "3.497",
        "epoch_osculation": "2459000.5",
        "eccentricity": ".4965489255149395",
        "semi_major_axis": "2.182638529526464",
        "inclination": "8.232904092964576",
        "ascending_node_longitude": "232.1474401997956",
        "orbital_period": "1177.798923376633",
        "perihelion_distance": "1.098851712902591",
        "perihelion_argument": "58.28966970943163",
        "aphelion_distance": "3.266425346150337",
        "perihelion_time": "2459040.621086028029",
        "mean_anomaly": "347.7367938759173",
        "mean_motion": ".3056548896885689",
        "equinox": "J2000",
        "orbit_class": {
            "orbit_class_type": "AMO",
            "orbit_class_description": "Near-Earth asteroid orbits similar to that of 1221 Amor",
            "orbit_class_range": "1.017 AU < q (perihelion) < 1.3 AU"
        }
    },
    "is_sentry_object": false
}